CCSDS_OMM_VERS = 2.0
CREATION_DATE  = 
ORIGINATOR     = 

OBJECT_NAME    = STARLINK-36344
OBJECT_ID      = 2026-025T
CENTER_NAME    = EARTH
REF_FRAME      = TEME
TIME_SYSTEM    = UTC
MEAN_ELEMENT_THEORY = SGP/SGP4

EPOCH          = 2026-03-05T20:00:00.999360
MEAN_MOTION    = 15.75213712
ECCENTRICITY   = .0001325
INCLINATION    = 97.2852
RA_OF_ASC_NODE = 176.2956
ARG_OF_PERICENTER = 109.5925
MEAN_ANOMALY   = 46.5527

EPHEMERIS_TYPE = 0
CLASSIFICATION_TYPE = U
NORAD_CAT_ID   = 67710
ELEMENT_SET_NO = 999
REV_AT_EPOCH   = 539
BSTAR          = -.13659E-3
MEAN_MOTION_DOT = -.20475E-3
MEAN_MOTION_DDOT = 0

CCSDS_OMM_VERS = 2.0
CREATION_DATE  = 
ORIGINATOR     = 

OBJECT_NAME    = STARLINK-36687
OBJECT_ID      = 2026-025U
CENTER_NAME    = EARTH
REF_FRAME      = TEME
TIME_SYSTEM    = UTC
MEAN_ELEMENT_THEORY = SGP/SGP4

EPOCH          = 2026-03-05T18:57:18.040032
MEAN_MOTION    = 15.80826213
ECCENTRICITY   = .0000839
INCLINATION    = 97.2852
RA_OF_ASC_NODE = 176.2880
ARG_OF_PERICENTER = 94.4885
MEAN_ANOMALY   = 265.6479

EPHEMERIS_TYPE = 0
CLASSIFICATION_TYPE = U
NORAD_CAT_ID   = 67711
ELEMENT_SET_NO = 999
REV_AT_EPOCH   = 534
BSTAR          = .15246E-2
MEAN_MOTION_DOT = .302393E-2
MEAN_MOTION_DDOT = 0

CCSDS_OMM_VERS = 2.0
CREATION_DATE  = 
ORIGINATOR     = 

OBJECT_NAME    = STARLINK-36705
OBJECT_ID      = 2026-025V
CENTER_NAME    = EARTH
REF_FRAME      = TEME
TIME_SYSTEM    = UTC
MEAN_ELEMENT_THEORY = SGP/SGP4

EPOCH          = 2026-03-05T07:20:12.842016
MEAN_MOTION    = 15.75277922
ECCENTRICITY   = .0001525
INCLINATION    = 97.2869
RA_OF_ASC_NODE = 175.7195
ARG_OF_PERICENTER = 71.2062
MEAN_ANOMALY   = 288.9369

EPHEMERIS_TYPE = 0
CLASSIFICATION_TYPE = U
NORAD_CAT_ID   = 67712
ELEMENT_SET_NO = 999
REV_AT_EPOCH   = 525
BSTAR          = .10207E-2
MEAN_MOTION_DOT = .155513E-2
MEAN_MOTION_DDOT = 0

CCSDS_OMM_VERS = 2.0
CREATION_DATE  = 
ORIGINATOR     = 

OBJECT_NAME    = STARLINK-36708
OBJECT_ID      = 2026-025W
CENTER_NAME    = EARTH
REF_FRAME      = TEME
TIME_SYSTEM    = UTC
MEAN_ELEMENT_THEORY = SGP/SGP4

EPOCH          = 2026-03-03T05:55:33.590784
MEAN_MOTION    = 15.81043377
ECCENTRICITY   = .00013277
INCLINATION    = 97.2866
RA_OF_ASC_NODE = 173.6220
ARG_OF_PERICENTER = 127.8035
MEAN_ANOMALY   = 232.3354

EPHEMERIS_TYPE = 0
CLASSIFICATION_TYPE = U
NORAD_CAT_ID   = 67713
ELEMENT_SET_NO = 999
REV_AT_EPOCH   = 493
BSTAR          = .2764055E-2
MEAN_MOTION_DOT = .571415E-2
MEAN_MOTION_DDOT = 0

CCSDS_OMM_VERS = 2.0
CREATION_DATE  = 
ORIGINATOR     = 

OBJECT_NAME    = STARLINK-36702
OBJECT_ID      = 2026-025X
CENTER_NAME    = EARTH
REF_FRAME      = TEME
TIME_SYSTEM    = UTC
MEAN_ELEMENT_THEORY = SGP/SGP4

EPOCH          = 2026-03-05T20:00:00.999360
MEAN_MOTION    = 15.76781049
ECCENTRICITY   = .0001509
INCLINATION    = 97.2860
RA_OF_ASC_NODE = 176.3527
ARG_OF_PERICENTER = 81.8814
MEAN_ANOMALY   = 209.2283

EPHEMERIS_TYPE = 0
CLASSIFICATION_TYPE = U
NORAD_CAT_ID   = 67714
ELEMENT_SET_NO = 999
REV_AT_EPOCH   = 503
BSTAR          = -.13663E-1
MEAN_MOTION_DOT = -.1904162E-1
MEAN_MOTION_DDOT = 0

CCSDS_OMM_VERS = 2.0
CREATION_DATE  = 
ORIGINATOR     = 

OBJECT_NAME    = STARLINK-36718
OBJECT_ID      = 2026-025Y
CENTER_NAME    = EARTH
REF_FRAME      = TEME
TIME_SYSTEM    = UTC
MEAN_ELEMENT_THEORY = SGP/SGP4

EPOCH          = 2026-03-05T20:06:49.527072
MEAN_MOTION    = 15.80813979
ECCENTRICITY   = .000093
INCLINATION    = 97.2865
RA_OF_ASC_NODE = 176.3742
ARG_OF_PERICENTER = 81.8287
MEAN_ANOMALY   = 278.3086

EPHEMERIS_TYPE = 0
CLASSIFICATION_TYPE = U
NORAD_CAT_ID   = 67715
ELEMENT_SET_NO = 999
REV_AT_EPOCH   = 534
BSTAR          = .16937E-2
MEAN_MOTION_DOT = .337121E-2
MEAN_MOTION_DDOT = 0

CCSDS_OMM_VERS = 2.0
CREATION_DATE  = 
ORIGINATOR     = 

OBJECT_NAME    = STARLINK-36715
OBJECT_ID      = 2026-025Z
CENTER_NAME    = EARTH
REF_FRAME      = TEME
TIME_SYSTEM    = UTC
MEAN_ELEMENT_THEORY = SGP/SGP4

EPOCH          = 2026-03-05T18:38:38.683968
MEAN_MOTION    = 15.80916383
ECCENTRICITY   = .0001249
INCLINATION    = 97.2847
RA_OF_ASC_NODE = 176.3043
ARG_OF_PERICENTER = 55.6823
MEAN_ANOMALY   = 304.4563

EPHEMERIS_TYPE = 0
CLASSIFICATION_TYPE = U
NORAD_CAT_ID   = 67716
ELEMENT_SET_NO = 999
REV_AT_EPOCH   = 533
BSTAR          = .29438E-2
MEAN_MOTION_DOT = .607647E-2
MEAN_MOTION_DDOT = 0

CCSDS_OMM_VERS = 2.0
CREATION_DATE  = 
ORIGINATOR     = 

OBJECT_NAME    = STARLINK-36385
OBJECT_ID      = 2026-025AA
CENTER_NAME    = EARTH
REF_FRAME      = TEME
TIME_SYSTEM    = UTC
MEAN_ELEMENT_THEORY = SGP/SGP4

EPOCH          = 2026-03-05T20:18:47.752992
MEAN_MOTION    = 15.80903744
ECCENTRICITY   = .0001378
INCLINATION    = 97.2853
RA_OF_ASC_NODE = 176.3635
ARG_OF_PERICENTER = 38.8974
MEAN_ANOMALY   = 321.2393

EPHEMERIS_TYPE = 0
CLASSIFICATION_TYPE = U
NORAD_CAT_ID   = 67717
ELEMENT_SET_NO = 999
REV_AT_EPOCH   = 534
BSTAR          = .11569E-2
MEAN_MOTION_DOT = .228259E-2
MEAN_MOTION_DDOT = 0

CCSDS_OMM_VERS = 2.0
CREATION_DATE  = 
ORIGINATOR     = 

OBJECT_NAME    = CZ-2F DEB
OBJECT_ID      = 2026-024E
CENTER_NAME    = EARTH
REF_FRAME      = TEME
TIME_SYSTEM    = UTC
MEAN_ELEMENT_THEORY = SGP/SGP4

EPOCH          = 2026-02-27T12:10:33.167712
MEAN_MOTION    = 15.20915897
ECCENTRICITY   = .02465096
INCLINATION    = 50.3169
RA_OF_ASC_NODE = 68.5830
ARG_OF_PERICENTER = 240.0171
MEAN_ANOMALY   = 117.6115

EPHEMERIS_TYPE = 0
CLASSIFICATION_TYPE = U
NORAD_CAT_ID   = 67718
ELEMENT_SET_NO = 999
REV_AT_EPOCH   = 308
BSTAR          = .35886422E-2
MEAN_MOTION_DOT = .191604E-2
MEAN_MOTION_DDOT = 0

CCSDS_OMM_VERS = 2.0
CREATION_DATE  = 
ORIGINATOR     = 

OBJECT_NAME    = CZ-2F DEB
OBJECT_ID      = 2026-024F
CENTER_NAME    = EARTH
REF_FRAME      = TEME
TIME_SYSTEM    = UTC
MEAN_ELEMENT_THEORY = SGP/SGP4

EPOCH          = 2026-03-05T10:13:58.592640
MEAN_MOTION    = 15.02321935
ECCENTRICITY   = .031542
INCLINATION    = 49.7929
RA_OF_ASC_NODE = 42.4485
ARG_OF_PERICENTER = 254.3722
MEAN_ANOMALY   = 102.2210

EPHEMERIS_TYPE = 0
CLASSIFICATION_TYPE = U
NORAD_CAT_ID   = 67719
ELEMENT_SET_NO = 999
REV_AT_EPOCH   = 360
BSTAR          = .38472E-2
MEAN_MOTION_DOT = .159912E-2
MEAN_MOTION_DDOT = 0

CCSDS_OMM_VERS = 2.0
CREATION_DATE  = 
ORIGINATOR     = 

OBJECT_NAME    = CZ-2F DEB
OBJECT_ID      = 2026-024G
CENTER_NAME    = EARTH
REF_FRAME      = TEME
TIME_SYSTEM    = UTC
MEAN_ELEMENT_THEORY = SGP/SGP4

EPOCH          = 2026-03-05T09:45:17.694720
MEAN_MOTION    = 14.99600446
ECCENTRICITY   = .0326259
INCLINATION    = 49.8321
RA_OF_ASC_NODE = 43.1094
ARG_OF_PERICENTER = 250.4321
MEAN_ANOMALY   = 106.1127

EPHEMERIS_TYPE = 0
CLASSIFICATION_TYPE = U
NORAD_CAT_ID   = 67720
ELEMENT_SET_NO = 999
REV_AT_EPOCH   = 391
BSTAR          = .37965E-2
MEAN_MOTION_DOT = .153334E-2
MEAN_MOTION_DDOT = 0

CCSDS_OMM_VERS = 2.0
CREATION_DATE  = 
ORIGINATOR     = 

OBJECT_NAME    = STARLINK-36772
OBJECT_ID      = 2026-026A
CENTER_NAME    = EARTH
REF_FRAME      = TEME
TIME_SYSTEM    = UTC
MEAN_ELEMENT_THEORY = SGP/SGP4

EPOCH          = 2026-03-05T20:00:00.999360
MEAN_MOTION    = 15.62540566
ECCENTRICITY   = .0001762
INCLINATION    = 97.2837
RA_OF_ASC_NODE = 119.2771
ARG_OF_PERICENTER = 79.8513
MEAN_ANOMALY   = 179.3259

EPHEMERIS_TYPE = 0
CLASSIFICATION_TYPE = U
NORAD_CAT_ID   = 67721
ELEMENT_SET_NO = 999
REV_AT_EPOCH   = 469
BSTAR          = -.25239E-1
MEAN_MOTION_DOT = -.1977241E-1
MEAN_MOTION_DDOT = 0

