STARLINK-36344          
1 67710U 26025T   26064.83334490 -.00020475  00000+0 -13659-3 0  9994
2 67710  97.2852 176.2956 0001325 109.5925  46.5527 15.75213712  5394
STARLINK-36687          
1 67711U 26025U   26064.78979213  .00302393  00000+0  15246-2 0  9990
2 67711  97.2852 176.2880 0000839  94.4885 265.6479 15.80826213  5344
STARLINK-36705          
1 67712U 26025V   26064.30570419  .00155513  00000+0  10207-2 0  9996
2 67712  97.2869 175.7195 0001525  71.2062 288.9369 15.75277922  5256
STARLINK-36708          
1 67713U 26025W   26062.24691656  .00571415  00000+0  27641-2 0  9998
2 67713  97.2866 173.6220 0001327 127.8035 232.3354 15.81043377  4931
STARLINK-36702          
1 67714U 26025X   26064.83334490 -.01904162  00000+0 -13663-1 0  9996
2 67714  97.2860 176.3527 0001509  81.8814 209.2283 15.76781049  5037
STARLINK-36718          
1 67715U 26025Y   26064.83807323  .00337121  00000+0  16937-2 0  9997
2 67715  97.2865 176.3742 0000930  81.8287 278.3086 15.80813979  5348
STARLINK-36715          
1 67716U 26025Z   26064.77683662  .00607647  00000+0  29438-2 0  9992
2 67716  97.2847 176.3043 0001249  55.6823 304.4563 15.80916383  5335
STARLINK-36385          
1 67717U 26025AA  26064.84638603  .00228259  00000+0  11569-2 0  9990
2 67717  97.2853 176.3635 0001378  38.8974 321.2393 15.80903744  5349
CZ-2F DEB               
1 67718U 26024E   26058.50732833  .00191604  00000+0  35886-2 0  9997
2 67718  50.3169  68.5830 0246509 240.0171 117.6115 15.20915897  3086
CZ-2F DEB               
1 67719U 26024F   26064.42637260  .00159912  00000+0  38472-2 0  9994
2 67719  49.7929  42.4485 0315420 254.3722 102.2210 15.02321935  3607
CZ-2F DEB               
1 67720U 26024G   26064.40645480  .00153334  00000+0  37965-2 0  9995
2 67720  49.8321  43.1094 0326259 250.4321 106.1127 14.99600446  3910
STARLINK-36772          
1 67721U 26026A   26064.83334490 -.01977241  00000+0 -25239-1 0  9995
2 67721  97.2837 119.2771 0001762  79.8513 179.3259 15.62540566  4693
